ONEWEB-0558             
1 56059U 23043P   25095.69031114  .00000077  00000+0  15519-3 0  9990
2 56059  87.9301 331.2236 0001609  67.7368 292.3936 13.21825114100449
ONEWEB-0559             
1 56060U 23043Q   25095.67926321  .00000119  00000+0  25777-3 0  9997
2 56060  87.9299 331.2196 0002039  70.8169 289.3185 13.21822481100451
ONEWEB-0566             
1 56061U 23043R   25095.67296362  .00000112  00000+0  24023-3 0  9999
2 56061  87.9302 331.2201 0001808  63.0776 297.0542 13.21827139100431
ONEWEB-0568             
1 56062U 23043S   25095.64843537  .00000012  00000+0 -15900-5 0  9995
2 56062  87.9047 315.9828 0001694  94.1046 266.0279 13.16594013101407
ONEWEB-0574             
1 56063U 23043T   25095.66667055  .00000967  00000+0  23101-2 0  9994
2 56063  87.9299 331.2107 0002378  83.9656 276.1749 13.21824970100475
ONEWEB-0575             
1 56064U 23043U   25095.64210139  .00000003  00000+0 -26833-4 0  9999
2 56064  87.9048 315.9964 0002133  95.4453 264.6921 13.16593843101392
ONEWEB-0576             
1 56065U 23043V   25095.85108388  .00000036  00000+0  60893-4 0  9994
2 56065  87.9048 315.9458 0001781  92.2829 267.8506 13.16593922101416
ONEWEB-0577             
1 56066U 23043W   25095.62943931  .00000006  00000+0 -17572-4 0  9995
2 56066  87.9049 315.9903 0002355  95.8758 264.2641 13.16593925101415
